[{"OBJECT_NAME":"GSAT-29","OBJECT_ID":"2018-089A","EPOCH":"2026-03-09T22:09:38.990880","MEAN_MOTION":1.00274204,"ECCENTRICITY":0.00016196,"INCLINATION":0.0444,"RA_OF_ASC_NODE":270.9245,"ARG_OF_PERICENTER":75.8338,"MEAN_ANOMALY":208.2829,"EPHEMERIS_TYPE":0,"CLASSIFICATION_TYPE":"U","NORAD_CAT_ID":43698,"ELEMENT_SET_NO":999,"REV_AT_EPOCH":2679,"BSTAR":0,"MEAN_MOTION_DOT":8.6e-7,"MEAN_MOTION_DDOT":0},{"OBJECT_NAME":"FENGYUN 2H DEB","OBJECT_ID":"2018-050D","EPOCH":"2026-03-09T14:22:36.893568","MEAN_MOTION":1.00291135,"ECCENTRICITY":0.00746585,"INCLINATION":4.6432,"RA_OF_ASC_NODE":77.4589,"ARG_OF_PERICENTER":268.5379,"MEAN_ANOMALY":90.8261,"EPHEMERIS_TYPE":0,"CLASSIFICATION_TYPE":"U","NORAD_CAT_ID":43645,"ELEMENT_SET_NO":999,"REV_AT_EPOCH":2792,"BSTAR":0,"MEAN_MOTION_DOT":9.0e-7,"MEAN_MOTION_DDOT":0}]
